[
  {
    "OBJECT_NAME": "STARLINK-30315",
    "OBJECT_ID": "23129L",
    "EPOCH": "2025-11-11T07:04:51.192480",
    "MEAN_MOTION": 15.02538942,
    "ECCENTRICITY": 0.000141,
    "INCLINATION": 43.006,
    "RA_OF_ASC_NODE": 43.7164,
    "ARG_OF_PERICENTER": 266.4563,
    "MEAN_ANOMALY": 93.6118,
    "EPHEMERIS_TYPE": 0,
    "CLASSIFICATION_TYPE": "U",
    "NORAD_CAT_ID": 57708,
    "ELEMENT_SET_NO": 999,
    "REV_AT_EPOCH": 12284,
    "BSTAR": 0.00011664,
    "MEAN_MOTION_DOT": 1.372e-05,
    "MEAN_MOTION_DDOT": 0.0,
    "TLE_LINE1": "1 57708U 23129L   25315.29503695  .00001372  00000+0  11664-3 0  9992",
    "TLE_LINE2": "2 57708  43.0060  43.7164 0001410 266.4563  93.6118 15.02538942122849",
    "COMMENT": "Grouped by shell and plane from TLE"
  },
  {
    "OBJECT_NAME": "STARLINK-30287",
    "OBJECT_ID": "23129M",
    "EPOCH": "2025-11-11T07:14:27.109824",
    "MEAN_MOTION": 15.02529308,
    "ECCENTRICITY": 0.0001447,
    "INCLINATION": 43.0053,
    "RA_OF_ASC_NODE": 43.7679,
    "ARG_OF_PERICENTER": 264.8221,
    "MEAN_ANOMALY": 95.2456,
    "EPHEMERIS_TYPE": 0,
    "CLASSIFICATION_TYPE": "U",
    "NORAD_CAT_ID": 57709,
    "ELEMENT_SET_NO": 999,
    "REV_AT_EPOCH": 12284,
    "BSTAR": 0.0002331,
    "MEAN_MOTION_DOT": 2.946e-05,
    "MEAN_MOTION_DDOT": 0.0,
    "TLE_LINE1": "1 57709U 23129M   25315.30170266  .00002946  00000+0  23310-3 0  9998",
    "TLE_LINE2": "2 57709  43.0053  43.7679 0001447 264.8221  95.2456 15.02529308122845",
    "COMMENT": "Grouped by shell and plane from TLE"
  },
  {
    "OBJECT_NAME": "STARLINK-30335",
    "OBJECT_ID": "23129N",
    "EPOCH": "2025-11-11T07:09:39.322656",
    "MEAN_MOTION": 15.02539769,
    "ECCENTRICITY": 8.79e-05,
    "INCLINATION": 42.9987,
    "RA_OF_ASC_NODE": 43.7347,
    "ARG_OF_PERICENTER": 270.7573,
    "MEAN_ANOMALY": 89.3168,
    "EPHEMERIS_TYPE": 0,
    "CLASSIFICATION_TYPE": "U",
    "NORAD_CAT_ID": 57710,
    "ELEMENT_SET_NO": 999,
    "REV_AT_EPOCH": 12284,
    "BSTAR": 1.7776e-05,
    "MEAN_MOTION_DOT": 3.7e-07,
    "MEAN_MOTION_DDOT": 0.0,
    "TLE_LINE1": "1 57710U 23129N   25315.29837179  .00000037  00000+0  17776-4 0  9990",
    "TLE_LINE2": "2 57710  42.9987  43.7347 0000879 270.7573  89.3168 15.02539769122843",
    "COMMENT": "Grouped by shell and plane from TLE"
  },
  {
    "OBJECT_NAME": "STARLINK-30318",
    "OBJECT_ID": "23129P",
    "EPOCH": "2025-11-11T07:24:02.675520",
    "MEAN_MOTION": 15.02540224,
    "ECCENTRICITY": 0.0002357,
    "INCLINATION": 43.0091,
    "RA_OF_ASC_NODE": 43.8036,
    "ARG_OF_PERICENTER": 293.2583,
    "MEAN_ANOMALY": 66.8011,
    "EPHEMERIS_TYPE": 0,
    "CLASSIFICATION_TYPE": "U",
    "NORAD_CAT_ID": 57711,
    "ELEMENT_SET_NO": 999,
    "REV_AT_EPOCH": 12270,
    "BSTAR": 0.0,
    "MEAN_MOTION_DOT": -2.38e-06,
    "MEAN_MOTION_DDOT": 0.0,
    "TLE_LINE1": "1 57711U 23129P   25315.30836430 -.00000238  00000+0 -24918-5 0  9994",
    "TLE_LINE2": "2 57711  43.0091  43.8036 0002357 293.2583  66.8011 15.02540224122702",
    "COMMENT": "Grouped by shell and plane from TLE"
  },
  {
    "OBJECT_NAME": "STARLINK-30348",
    "OBJECT_ID": "23129Q",
    "EPOCH": "2025-11-11T06:55:15.734784",
    "MEAN_MOTION": 15.02535908,
    "ECCENTRICITY": 0.0001135,
    "INCLINATION": 43.0036,
    "RA_OF_ASC_NODE": 43.6609,
    "ARG_OF_PERICENTER": 269.0388,
    "MEAN_ANOMALY": 91.0325,
    "EPHEMERIS_TYPE": 0,
    "CLASSIFICATION_TYPE": "U",
    "NORAD_CAT_ID": 57712,
    "ELEMENT_SET_NO": 999,
    "REV_AT_EPOCH": 12284,
    "BSTAR": 6.4239e-05,
    "MEAN_MOTION_DOT": 6.64e-06,
    "MEAN_MOTION_DDOT": 0.0,
    "TLE_LINE1": "1 57712U 23129Q   25315.28837656  .00000664  00000+0  64239-4 0  9993",
    "TLE_LINE2": "2 57712  43.0036  43.6609 0001135 269.0388  91.0325 15.02535908122849",
    "COMMENT": "Grouped by shell and plane from TLE"
  },
  {
    "OBJECT_NAME": "STARLINK-30349",
    "OBJECT_ID": "23129R",
    "EPOCH": "2025-11-11T06:45:40.382496",
    "MEAN_MOTION": 15.02536799,
    "ECCENTRICITY": 0.000121,
    "INCLINATION": 43.0038,
    "RA_OF_ASC_NODE": 43.6144,
    "ARG_OF_PERICENTER": 279.1246,
    "MEAN_ANOMALY": 80.9459,
    "EPHEMERIS_TYPE": 0,
    "CLASSIFICATION_TYPE": "U",
    "NORAD_CAT_ID": 57713,
    "ELEMENT_SET_NO": 999,
    "REV_AT_EPOCH": 12270,
    "BSTAR": 2.3148e-05,
    "MEAN_MOTION_DOT": 1.09e-06,
    "MEAN_MOTION_DDOT": 0.0,
    "TLE_LINE1": "1 57713U 23129R   25315.28171739  .00000109  00000+0  23148-4 0  9995",
    "TLE_LINE2": "2 57713  43.0038  43.6144 0001210 279.1246  80.9459 15.02536799122704",
    "COMMENT": "Grouped by shell and plane from TLE"
  },
  {
    "OBJECT_NAME": "STARLINK-30341",
    "OBJECT_ID": "23129S",
    "EPOCH": "2025-11-11T06:12:06.182496",
    "MEAN_MOTION": 15.02548913,
    "ECCENTRICITY": 9.89e-05,
    "INCLINATION": 43.0,
    "RA_OF_ASC_NODE": 43.433,
    "ARG_OF_PERICENTER": 215.6166,
    "MEAN_ANOMALY": 144.461,
    "EPHEMERIS_TYPE": 0,
    "CLASSIFICATION_TYPE": "U",
    "NORAD_CAT_ID": 57714,
    "ELEMENT_SET_NO": 999,
    "REV_AT_EPOCH": 12284,
    "BSTAR": 0.00012421,
    "MEAN_MOTION_DOT": 1.475e-05,
    "MEAN_MOTION_DDOT": 0.0,
    "TLE_LINE1": "1 57714U 23129S   25315.25840489  .00001475  00000+0  12421-3 0  9996",
    "TLE_LINE2": "2 57714  43.0000  43.4330 0000989 215.6166 144.4610 15.02548913122848",
    "COMMENT": "Grouped by shell and plane from TLE"
  },
  {
    "OBJECT_NAME": "STARLINK-30300",
    "OBJECT_ID": "23129T",
    "EPOCH": "2025-11-11T05:24:19.916928",
    "MEAN_MOTION": 15.02532801,
    "ECCENTRICITY": 0.0001224,
    "INCLINATION": 43.0046,
    "RA_OF_ASC_NODE": 44.0521,
    "ARG_OF_PERICENTER": 278.0741,
    "MEAN_ANOMALY": 81.9962,
    "EPHEMERIS_TYPE": 0,
    "CLASSIFICATION_TYPE": "U",
    "NORAD_CAT_ID": 57715,
    "ELEMENT_SET_NO": 999,
    "REV_AT_EPOCH": 12283,
    "BSTAR": 7.4002e-05,
    "MEAN_MOTION_DOT": 7.96e-06,
    "MEAN_MOTION_DDOT": 0.0,
    "TLE_LINE1": "1 57715U 23129T   25315.22523052  .00000796  00000+0  74002-4 0  9997",
    "TLE_LINE2": "2 57715  43.0046  44.0521 0001224 278.0741  81.9962 15.02532801122836",
    "COMMENT": "Grouped by shell and plane from TLE"
  },
  {
    "OBJECT_NAME": "STARLINK-30281",
    "OBJECT_ID": "23129U",
    "EPOCH": "2025-11-11T06:31:17.554944",
    "MEAN_MOTION": 15.02535696,
    "ECCENTRICITY": 0.0001453,
    "INCLINATION": 43.005,
    "RA_OF_ASC_NODE": 43.5364,
    "ARG_OF_PERICENTER": 263.5229,
    "MEAN_ANOMALY": 96.5448,
    "EPHEMERIS_TYPE": 0,
    "CLASSIFICATION_TYPE": "U",
    "NORAD_CAT_ID": 57716,
    "ELEMENT_SET_NO": 999,
    "REV_AT_EPOCH": 12270,
    "BSTAR": 7.3217e-05,
    "MEAN_MOTION_DOT": 7.85e-06,
    "MEAN_MOTION_DDOT": 0.0,
    "TLE_LINE1": "1 57716U 23129U   25315.27173096  .00000785  00000+0  73217-4 0  9997",
    "TLE_LINE2": "2 57716  43.0050  43.5364 0001453 263.5229  96.5448 15.02535696122707",
    "COMMENT": "Grouped by shell and plane from TLE"
  },
  {
    "OBJECT_NAME": "STARLINK-30325",
    "OBJECT_ID": "23129V",
    "EPOCH": "2025-11-11T05:14:40.039872",
    "MEAN_MOTION": 15.02625852,
    "ECCENTRICITY": 0.0002382,
    "INCLINATION": 43.0063,
    "RA_OF_ASC_NODE": 44.0069,
    "ARG_OF_PERICENTER": 311.7146,
    "MEAN_ANOMALY": 48.3493,
    "EPHEMERIS_TYPE": 0,
    "CLASSIFICATION_TYPE": "U",
    "NORAD_CAT_ID": 57717,
    "ELEMENT_SET_NO": 999,
    "REV_AT_EPOCH": 12283,
    "BSTAR": 0.00030203,
    "MEAN_MOTION_DOT": 3.888e-05,
    "MEAN_MOTION_DDOT": 0.0,
    "TLE_LINE1": "1 57717U 23129V   25315.21851898  .00003888  00000+0  30203-3 0  9999",
    "TLE_LINE2": "2 57717  43.0063  44.0069 0002382 311.7146  48.3493 15.02625852122839",
    "COMMENT": "Grouped by shell and plane from TLE"
  },
  {
    "OBJECT_NAME": "STARLINK-30338",
    "OBJECT_ID": "23129W",
    "EPOCH": "2025-11-11T06:36:04.657824",
    "MEAN_MOTION": 15.02534385,
    "ECCENTRICITY": 9.84e-05,
    "INCLINATION": 43.0043,
    "RA_OF_ASC_NODE": 43.5633,
    "ARG_OF_PERICENTER": 251.7223,
    "MEAN_ANOMALY": 108.3512,
    "EPHEMERIS_TYPE": 0,
    "CLASSIFICATION_TYPE": "U",
    "NORAD_CAT_ID": 57718,
    "ELEMENT_SET_NO": 999,
    "REV_AT_EPOCH": 12284,
    "BSTAR": 0.00031747,
    "MEAN_MOTION_DOT": 4.087e-05,
    "MEAN_MOTION_DDOT": 0.0,
    "TLE_LINE1": "1 57718U 23129W   25315.27505391  .00004087  00000+0  31747-3 0  9996",
    "TLE_LINE2": "2 57718  43.0043  43.5633 0000984 251.7223 108.3512 15.02534385122844",
    "COMMENT": "Grouped by shell and plane from TLE"
  },
  {
    "OBJECT_NAME": "STARLINK-30334",
    "OBJECT_ID": "23129X",
    "EPOCH": "2025-11-11T06:40:52.820832",
    "MEAN_MOTION": 15.02533703,
    "ECCENTRICITY": 0.0001056,
    "INCLINATION": 43.0035,
    "RA_OF_ASC_NODE": 43.5889,
    "ARG_OF_PERICENTER": 272.302,
    "MEAN_ANOMALY": 87.7702,
    "EPHEMERIS_TYPE": 0,
    "CLASSIFICATION_TYPE": "U",
    "NORAD_CAT_ID": 57719,
    "ELEMENT_SET_NO": 999,
    "REV_AT_EPOCH": 12270,
    "BSTAR": 2.4621000000000004e-05,
    "MEAN_MOTION_DOT": 1.29e-06,
    "MEAN_MOTION_DDOT": 0.0,
    "TLE_LINE1": "1 57719U 23129X   25315.27838913  .00000129  00000+0  24621-4 0  9993",
    "TLE_LINE2": "2 57719  43.0035  43.5889 0001056 272.3020  87.7702 15.02533703122703",
    "COMMENT": "Grouped by shell and plane from TLE"
  }
]